     2.11           N: GPS NAV DATA                         RINEX VERSION / TYPE
CONVBIN 2.4.3                           20210713 210003 UTC PGM / RUN BY / DATE 
log: ./LOGS/2021_7_13_20_00_00.ubx                          COMMENT             
format: u-blox                                              COMMENT             
GNSS logger application                                     COMMENT             
    4.6566E-09  1.4901E-08 -5.9605E-08 -1.1921E-07          ION ALPHA           
    7.9872E+04  8.1920E+04 -6.5536E+04 -4.5875E+05          ION BETA            
    -.372529029846E-08 -.710542735760E-14   405504     2166 DELTA-UTC: A0,A1,T,W
                                                            END OF HEADER       
 7 21  7 13 22  0  0.0  .201659742743E-03  .886757334229E-11  .000000000000E+00
     .105000000000E+03  .259687500000E+02  .493556272886E-08 -.208162544067E+01
     .124424695969E-05  .151712071383E-01  .579282641411E-05  .515374341393E+04
     .252000000000E+06  .124797224998E-06 -.117420769410E+01 -.119209289551E-06
     .951112823061E+00  .261562500000E+03 -.231786299657E+01 -.804819238237E-08
     .257867884090E-09  .100000000000E+01  .216600000000E+04  .000000000000E+00
     .340000000000E+01  .000000000000E+00 -.111758708954E-07  .105000000000E+03
     .244836000000E+06  .400000000000E+01
 9 21  7 13 22  0  0.0 -.355340074748E-03 -.147792889038E-11  .000000000000E+00
     .820000000000E+02 -.312500000000E+02  .451090218290E-08  .117845072853E+01
    -.179931521416E-05  .192289799452E-02  .107847154140E-04  .515375557137E+04
     .252000000000E+06 -.260770320892E-07 -.224690888329E+01 -.484287738800E-07
     .953439584026E+00  .167375000000E+03  .181946373878E+01 -.792747306822E-08
     .196793911542E-09  .100000000000E+01  .216600000000E+04  .000000000000E+00
     .240000000000E+01  .000000000000E+00  .139698386192E-08  .820000000000E+02
     .244836000000E+06  .400000000000E+01
11 21  7 13 21 59 44.0  .148736871779E-04  .920863385545E-11  .000000000000E+00
     .191000000000E+03  .325625000000E+02  .487377444084E-08  .189823769048E+01
     .175647437572E-05  .501205329783E-03  .216253101826E-05  .515366546631E+04
     .251984000000E+06  .447034835815E-07  .201885515445E+01 -.279396772385E-07
     .959662433770E+00  .339937500000E+03  .165670205094E+01 -.846035240764E-08
     .247510309798E-09  .100000000000E+01  .216600000000E+04  .000000000000E+00
     .240000000000E+01  .630000000000E+02 -.558793544769E-08  .191000000000E+03
     .244836000000E+06  .400000000000E+01
 4 21  7 13 22  0  0.0 -.202283728868E-03 -.795807864051E-12  .000000000000E+00
     .176000000000E+03 -.267500000000E+02  .438339687179E-08  .176799412314E+00
    -.157020986080E-05  .128829665482E-02  .104941427708E-04  .515372747040E+04
     .252000000000E+06 -.242143869400E-07 -.219569163126E+01 -.931322574615E-08
     .960512895343E+00  .174750000000E+03 -.295391829741E+01 -.788068540504E-08
     .171078554680E-09  .100000000000E+01  .216600000000E+04  .000000000000E+00
     .240000000000E+01  .000000000000E+00 -.419095158577E-08  .688000000000E+03
     .244836000000E+06  .400000000000E+01
16 21  7 13 22  0  0.0 -.356624368578E-03 -.613908923697E-11  .000000000000E+00
     .790000000000E+02 -.133750000000E+02  .423089051929E-08  .164055056491E+01
    -.694766640663E-06  .121691493550E-01  .868178904057E-05  .515372284698E+04
     .252000000000E+06 -.175088644028E-06 -.446313894079E-01  .186264514923E-08
     .973366551481E+00  .223875000000E+03  .680142363299E+00 -.793283043423E-08
    -.602882255323E-09  .100000000000E+01  .216600000000E+04  .000000000000E+00
     .240000000000E+01  .000000000000E+00 -.102445483208E-07  .790000000000E+02
     .244836000000E+06  .400000000000E+01
20 21  7 13 22  0  0.0  .520224682987E-03 -.341060513165E-12  .000000000000E+00
     .550000000000E+02 -.965625000000E+02  .536450916763E-08 -.430580572941E+00
    -.496022403240E-05  .606765947305E-02  .448711216450E-05  .515175764275E+04
     .252000000000E+06  .130385160446E-07  .285973667453E+01 -.260770320892E-07
     .939146131229E+00  .281000000000E+03  .304305852026E+01 -.867428989042E-08
    -.121433629627E-09  .100000000000E+01  .216600000000E+04  .000000000000E+00
     .240000000000E+01  .000000000000E+00 -.838190317154E-08  .550000000000E+02
     .244986000000E+06  .400000000000E+01
30 21  7 13 22  0  0.0 -.450416933745E-03 -.443378667114E-11  .000000000000E+00
     .160000000000E+02  .267500000000E+02  .537843831926E-08 -.223328367977E+01
     .130012631416E-05  .534211879130E-02  .559724867344E-05  .515367134285E+04
     .252000000000E+06  .931322574615E-08 -.115775534287E+01 -.465661287308E-07
     .936323228912E+00  .258218750000E+03 -.274371200383E+01 -.842642242289E-08
     .159649507186E-09  .100000000000E+01  .216600000000E+04  .000000000000E+00
     .240000000000E+01  .000000000000E+00  .372529029846E-08  .160000000000E+02
     .245076000000E+06  .400000000000E+01
 2 21  7 13 22  0  0.0 -.619363039732E-03 -.261479726760E-11  .000000000000E+00
     .540000000000E+02  .586250000000E+02  .480698594455E-08 -.120057303278E+01
     .353530049324E-05  .202059115982E-01  .328756868839E-05  .515371379471E+04
     .252000000000E+06 -.244006514549E-06  .188515945008E+01  .363215804100E-06
     .963253591904E+00  .325656250000E+03 -.150643657423E+01 -.860142971264E-08
     .343942898031E-09  .100000000000E+01  .216600000000E+04  .000000000000E+00
     .240000000000E+01  .000000000000E+00 -.176951289177E-07  .540000000000E+02
     .245166000000E+06  .400000000000E+01
 6 21  7 13 21 59 44.0  .396976247430E-04  .545696821064E-11  .000000000000E+00
     .200000000000E+02  .393437500000E+02  .431053669401E-08 -.128827354821E+01
     .197626650333E-05  .217169534881E-02  .280141830444E-05  .515353565598E+04
     .251984000000E+06 -.204890966415E-07  .196173263024E+01  .745058059692E-08
     .984106307086E+00  .342375000000E+03 -.954138408289E+00 -.818676958324E-08
     .272154193457E-09  .100000000000E+01  .216600000000E+04  .000000000000E+00
     .240000000000E+01  .000000000000E+00  .419095158577E-08  .200000000000E+02
     .245376000000E+06  .400000000000E+01
 5 21  7 13 22  0  0.0 -.478234142065E-04 -.113686837722E-11  .000000000000E+00
     .450000000000E+02 -.106531250000E+03  .487377444084E-08  .114050245947E+01
    -.536441802979E-05  .619851972442E-02  .589713454247E-05  .515391218376E+04
     .252000000000E+06 -.875443220139E-07  .296971101888E+01  .143423676491E-06
     .957234311600E+00  .266468750000E+03  .928428320858E+00 -.844713757147E-08
    -.250367571671E-09  .100000000000E+01  .216600000000E+04  .000000000000E+00
     .240000000000E+01  .000000000000E+00 -.111758708954E-07  .450000000000E+02
     .245736000000E+06  .400000000000E+01
 7 21  7 13 21 59 44.0  .201662071049E-03  .886757334229E-11  .000000000000E+00
     .280000000000E+02  .259687500000E+02  .493556272886E-08 -.208395894862E+01
     .124424695969E-05  .151712069055E-01  .579282641411E-05  .515374341774E+04
     .251984000000E+06  .124797224998E-06 -.117420758877E+01 -.119209289551E-06
     .951112818672E+00  .261562500000E+03 -.231786314140E+01 -.804819238237E-08
     .257510726355E-09  .100000000000E+01  .216600000000E+04  .000000000000E+00
     .240000000000E+01  .000000000000E+00 -.111758708954E-07  .280000000000E+02
     .246006000000E+06  .400000000000E+01
14 21  7 13 22  0  0.0  .480734743178E-04 -.898126018001E-11  .000000000000E+00
     .212000000000E+03 -.896875000000E+01  .452733143867E-08 -.273181949511E+01
    -.393018126488E-06  .897801714018E-03  .837817788124E-05  .515375240898E+04
     .252000000000E+06 -.204890966415E-07 -.912034552186E-01  .298023223877E-07
     .956758092266E+00  .215625000000E+03  .294557750509E+01 -.801354808216E-08
    -.459662003910E-09  .100000000000E+01  .216600000000E+04  .000000000000E+00
     .240000000000E+01  .000000000000E+00 -.791624188423E-08  .212000000000E+03
     .246786000000E+06  .400000000000E+01
27 21  7 13 22  0  0.0 -.162401702255E-03 -.591171556152E-11  .000000000000E+00
     .840000000000E+02  .733125000000E+02  .390194824609E-08  .694251097819E+00
     .379979610443E-05  .943860842381E-02  .101160258055E-04  .515369101715E+04
     .252000000000E+06 -.124797224998E-06  .911594117291E+00  .158324837685E-06
     .975613943288E+00  .194125000000E+03  .636665957956E+00 -.781603985515E-08
    -.267868300647E-10  .100000000000E+01  .216600000000E+04  .000000000000E+00
     .240000000000E+01  .000000000000E+00  .186264514923E-08  .840000000000E+02
     .248076000000E+06  .400000000000E+01
13 21  7 13 22  0  0.0  .157312024385E-03  .500222085975E-11  .000000000000E+00
     .480000000000E+02 -.984375000000E+01  .434268089009E-08  .195102009662E+00
    -.394880771637E-06  .511884025764E-02  .110734254122E-04  .515368750954E+04
     .252000000000E+06 -.242143869400E-07 -.209751050738E+01  .447034835815E-07
     .968051493608E+00  .166218750000E+03  .955674273315E+00 -.793961643118E-08
     .256439253153E-09  .100000000000E+01  .216600000000E+04  .000000000000E+00
     .240000000000E+01  .000000000000E+00 -.111758708954E-07  .480000000000E+02
     .248196000000E+06  .400000000000E+01
